{
  "type": "FeatureCollection",
  "features": [
    {
      "type": "Feature",
      "properties": {
        "norad_id": 19071,
        "name": "OSCAR 32",
        "group": "nnss",
        "lat": 35.5685071788725,
        "lon": 16.546929269150027,
        "alt_km": 1195.1185909975857,
        "timestamp": "2025-12-20T20:38:44.711387+00:00",
        "meta_object_name": "OSCAR 32",
        "meta_object_id": "1988-033B",
        "meta_epoch": "2025-12-20T12:14:25.704672",
        "meta_mean_motion": 13.27955164,
        "meta_eccentricity": 0.01889619,
        "meta_inclination": 90.321,
        "meta_ra_of_asc_node": 16.7657,
        "meta_arg_of_pericenter": 145.2603,
        "meta_mean_anomaly": 19.1565,
        "meta_ephemeris_type": 0,
        "meta_classification_type": "U",
        "meta_norad_cat_id": 19071,
        "meta_element_set_no": 999,
        "meta_rev_at_epoch": 82368,
        "meta_bstar": 0.00012124992,
        "meta_mean_motion_dot": 7e-07,
        "meta_mean_motion_ddot": 0,
        "tle_line1": "1 19071U 88033B   25354.51001973  .00000070  00000+0  12125-3 0  9995",
        "tle_line2": "2 19071  90.3210  16.7657 0188961 145.2603  19.1565 13.27955164823688"
      },
      "geometry": {
        "type": "Point",
        "coordinates": [
          16.546929269150027,
          35.5685071788725
        ]
      }
    },
    {
      "type": "Feature",
      "properties": {
        "norad_id": 19223,
        "name": "NOVA 2",
        "group": "nnss",
        "lat": 88.79206200637695,
        "lon": 78.87930505393314,
        "alt_km": 1167.6745826677898,
        "timestamp": "2025-12-20T20:38:44.711398+00:00",
        "meta_object_name": "NOVA 2",
        "meta_object_id": "1988-052A",
        "meta_epoch": "2025-12-20T12:59:59.868096",
        "meta_mean_motion": 13.22936616,
        "meta_eccentricity": 0.00299291,
        "meta_inclination": 89.987,
        "meta_ra_of_asc_node": 78.2628,
        "meta_arg_of_pericenter": 355.3753,
        "meta_mean_anomaly": 16.721,
        "meta_ephemeris_type": 0,
        "meta_classification_type": "U",
        "meta_norad_cat_id": 19223,
        "meta_element_set_no": 999,
        "meta_rev_at_epoch": 81051,
        "meta_bstar": 8.6250754e-05,
        "meta_mean_motion_dot": 4.5e-07,
        "meta_mean_motion_ddot": 0,
        "tle_line1": "1 19223U 88052A   25354.54166514  .00000045  00000+0  86251-4 0  9995",
        "tle_line2": "2 19223  89.9870  78.2628 0029929 355.3753  16.7210 13.22936616810516"
      },
      "geometry": {
        "type": "Point",
        "coordinates": [
          78.87930505393314,
          88.79206200637695
        ]
      }
    },
    {
      "type": "Feature",
      "properties": {
        "norad_id": 19419,
        "name": "OSCAR 25",
        "group": "nnss",
        "lat": 19.720825339061047,
        "lon": 20.25859487414468,
        "alt_km": 1165.0490852651483,
        "timestamp": "2025-12-20T20:38:44.711408+00:00",
        "meta_object_name": "OSCAR 25",
        "meta_object_id": "1988-074A",
        "meta_epoch": "2025-12-20T12:26:18.131424",
        "meta_mean_motion": 13.42624739,
        "meta_eccentricity": 0.00948697,
        "meta_inclination": 90.0339,
        "meta_ra_of_asc_node": 20.2696,
        "meta_arg_of_pericenter": 223.3113,
        "meta_mean_anomaly": 304.1551,
        "meta_ephemeris_type": 0,
        "meta_classification_type": "U",
        "meta_norad_cat_id": 19419,
        "meta_element_set_no": 999,
        "meta_rev_at_epoch": 82744,
        "meta_bstar": 0.00013820624,
        "meta_mean_motion_dot": 8.9e-07,
        "meta_mean_motion_ddot": 0,
        "tle_line1": "1 19419U 88074A   25354.51826541  .00000089  00000+0  13821-3 0  9996",
        "tle_line2": "2 19419  90.0339  20.2696 0094869 223.3113 304.1551 13.42624739827441"
      },
      "geometry": {
        "type": "Point",
        "coordinates": [
          20.25859487414468,
          19.720825339061047
        ]
      }
    },
    {
      "type": "Feature",
      "properties": {
        "norad_id": 19420,
        "name": "OSCAR 31",
        "group": "nnss",
        "lat": -82.82952227938806,
        "lon": -159.6596337495248,
        "alt_km": 1058.6497360023395,
        "timestamp": "2025-12-20T20:38:44.711418+00:00",
        "meta_object_name": "OSCAR 31",
        "meta_object_id": "1988-074B",
        "meta_epoch": "2025-12-20T13:01:10.132032",
        "meta_mean_motion": 13.42585981,
        "meta_eccentricity": 0.00932372,
        "meta_inclination": 90.0354,
        "meta_ra_of_asc_node": 20.6208,
        "meta_arg_of_pericenter": 217.3864,
        "meta_mean_anomaly": 309.7263,
        "meta_ephemeris_type": 0,
        "meta_classification_type": "U",
        "meta_norad_cat_id": 19420,
        "meta_element_set_no": 999,
        "meta_rev_at_epoch": 82755,
        "meta_bstar": 0.00014414434,
        "meta_mean_motion_dot": 9.2e-07,
        "meta_mean_motion_ddot": 0,
        "tle_line1": "1 19420U 88074B   25354.54247838  .00000092  00000+0  14414-3 0  9990",
        "tle_line2": "2 19420  90.0354  20.6208 0093237 217.3864 309.7263 13.42585981827555"
      },
      "geometry": {
        "type": "Point",
        "coordinates": [
          -159.6596337495248,
          -82.82952227938806
        ]
      }
    }
  ]
}